COMMENT,ORIGINATOR,NORAD_CAT_ID,OBJECT_NAME,OBJECT_TYPE,CLASSIFICATION_TYPE,INTLDES,EPOCH,EPOCH_MICROSECONDS,MEAN_MOTION,ECCENTRICITY,INCLINATION,RA_OF_ASC_NODE,ARG_OF_PERICENTER,MEAN_ANOMALY,EPHEMERIS_TYPE,ELEMENT_SET_NO,REV_AT_EPOCH,BSTAR,MEAN_MOTION_DOT,MEAN_MOTION_DDOT,FILE,TLE_LINE0,TLE_LINE1,TLE_LINE2,OBJECT_ID,OBJECT_NUMBER,SEMIMAJOR_AXIS,PERIOD,APOGEE,PERIGEE,DECAYED
GENERATED VIA SPACETRACK.ORG API,18 SPCS,50803,STARLINK-3321,PAYLOAD,U,22001A,2022-04-18 14:00:01,224,15.0887757,0.0001647,53.2165,68.6981,46.6159,186.9558,0,999,363,-0.0027507,-0.00043844,0.0,3406909,0 STARLINK-3321,1 50803U 22001A   22108.58334491 -.00043844  00000-0 -27507-2 0  9999,2 50803  53.2165  68.6981 0001647  46.6159 186.9558 15.08877570  3639,2022-001A,50803,6917.766,95.435,540.77,538.491,1
GENERATED VIA SPACETRACK.ORG API,18 SPCS,50803,STARLINK-3321,PAYLOAD,U,22001A,2022-04-18 22:00:00,999936,15.08850273,0.0001592,53.2167,67.2014,51.0951,194.0986,0,999,362,-0.00022317,-3.839e-05,0.0,3407402,0 STARLINK-3321,1 50803U 22001A   22108.91667824 -.00003839  00000-0 -22317-3 0  9990,2 50803  53.2167  67.2014 0001592  51.0951 194.0986 15.08850273  3627,2022-001A,50803,6917.849,95.437,540.815,538.613,1
GENERATED VIA SPACETRACK.ORG API,18 SPCS,50803,STARLINK-3321,PAYLOAD,U,22001A,2022-04-19 04:00:00,999936,15.08844597,0.0001747,53.2167,66.0806,45.267,118.6323,0,999,1722,-0.00024397,-4.169e-05,0.0,3407519,0 STARLINK-3321,1 50803U 22001A   22109.16667824 -.00004169  00000-0 -24397-3 0  9995,2 50803  53.2167  66.0806 0001747  45.2670 118.6323 15.08844597 17228,2022-001A,50803,6917.866,95.437,540.94,538.523,1
GENERATED VIA SPACETRACK.ORG API,18 SPCS,50803,STARLINK-3321,PAYLOAD,U,22001A,2022-04-19 14:00:01,224,15.08851434,0.0001731,53.2169,64.2091,47.7821,220.6223,0,999,363,-0.0024669,-0.00039347,0.0,3408368,0 STARLINK-3321,1 50803U 22001A   22109.58334491 -.00039347  00000-0 -24669-2 0  9999,2 50803  53.2169  64.2091 0001731  47.7821 220.6223 15.08851434  3635,2022-001A,50803,6917.845,95.437,540.908,538.513,1
GENERATED VIA SPACETRACK.ORG API,18 SPCS,50803,STARLINK-3321,PAYLOAD,U,22001A,2022-04-20 14:00:01,224,15.08834371,0.0001747,53.2174,59.7202,47.6014,255.5816,0,999,1744,-0.00047928,-7.907e-05,0.0,3409281,0 STARLINK-3321,1 50803U 22001A   22110.58334491 -.00007907  00000-0 -47928-3 0  9992,2 50803  53.2174  59.7202 0001747  47.6014 255.5816 15.08834371 17444,2022-001A,50803,6917.898,95.438,540.971,538.554,1
GENERATED VIA SPACETRACK.ORG API,18 SPCS,50803,STARLINK-3321,PAYLOAD,U,22001A,2022-04-20 22:00:00,999936,15.08849284,0.0001746,53.2177,58.2236,52.2434,262.5203,0,999,361,0.00023145,3.398e-05,0.0,3409979,0 STARLINK-3321,1 50803U 22001A   22110.91667824  .00003398  00000-0  23145-3 0  9991,2 50803  53.2177  58.2236 0001746  52.2434 262.5203 15.08849284  3616,2022-001A,50803,6917.852,95.437,540.925,538.509,1
GENERATED VIA SPACETRACK.ORG API,18 SPCS,50803,STARLINK-3321,PAYLOAD,U,22001A,2022-04-21 14:00:01,224,15.08845038,0.000173,53.2178,55.2312,48.4477,289.5351,0,999,362,-0.0014979,-0.00024051,0.0,3410449,0 STARLINK-3321,1 50803U 22001A   22111.58334491 -.00024051  00000-0 -14979-2 0  9991,2 50803  53.2178  55.2312 0001730  48.4477 289.5351 15.08845038  3623,2022-001A,50803,6917.865,95.437,540.927,538.533,1
GENERATED VIA SPACETRACK.ORG API,18 SPCS,50803,STARLINK-3321,PAYLOAD,U,22001A,2022-04-21 22:00:00,999936,15.08844174,0.0001749,53.2181,53.7348,52.7718,296.8044,0,999,361,-0.00097308,-0.00015743,0.0,3410450,0 STARLINK-3321,1 50803U 22001A   22111.91667824 -.00015743  00000-0 -97308-3 0  9993,2 50803  53.2181  53.7348 0001749  52.7718 296.8044 15.08844174  3614,2022-001A,50803,6917.868,95.437,540.943,538.523,1
GENERATED VIA SPACETRACK.ORG API,18 SPCS,50803,STARLINK-3321,PAYLOAD,U,22001A,2022-04-22 14:00:01,224,15.08849861,0.0001737,53.2179,50.742,51.1317,321.6212,0,999,362,-0.0010417,-0.00016833,0.0,3411458,0 STARLINK-3321,1 50803U 22001A   22112.58334491 -.00016833  00000-0 -10417-2 0  9994,2 50803  53.2179  50.7420 0001737  51.1317 321.6212 15.08849861  3627,2022-001A,50803,6917.85,95.437,540.917,538.514,1
GENERATED VIA SPACETRACK.ORG API,18 SPCS,50803,STARLINK-3321,PAYLOAD,U,22001A,2022-04-22 20:00:01,224,15.08842669,0.0001668,53.218,49.6194,54.5972,236.8564,0,999,1778,-0.00023245,-3.986e-05,0.0,3411535,0 STARLINK-3321,1 50803U 22001A   22112.83334491 -.00003986  00000-0 -23245-3 0  9991,2 50803  53.2180  49.6194 0001668  54.5972 236.8564 15.08842669 17789,2022-001A,50803,6917.872,95.437,540.891,538.583,1
GENERATED VIA SPACETRACK.ORG API,18 SPCS,50803,STARLINK-3321,PAYLOAD,U,22001A,2022-04-23 14:00:01,224,15.0882024,0.0001565,53.2179,46.2528,49.3116,358.2343,0,999,358,0.0011144,0.00017483,0.0,3412883,0 STARLINK-3321,1 50803U 22001A   22113.58334491  .00017483  00000-0  11144-2 0  9993,2 50803  53.2179  46.2528 0001565  49.3116 358.2343 15.08820240  3587,2022-001A,50803,6917.941,95.439,540.888,538.723,1
GENERATED VIA SPACETRACK.ORG API,18 SPCS,50803,STARLINK-3321,PAYLOAD,U,22001A,2022-04-24 06:00:00,999648,15.08802864,0.0001785,53.2176,43.2619,48.4548,22.26,0,999,1799,0.0038552,0.00061541,0.0,3413349,0 STARLINK-3321,1 50803U 22001A   22114.25001157  .00061541  00000-0  38552-2 0  9994,2 50803  53.2176  43.2619 0001785  48.4548  22.2600 15.08802864 17991,2022-001A,50803,6917.994,95.44,541.094,538.624,1
GENERATED VIA SPACETRACK.ORG API,18 SPCS,50803,STARLINK-3321,PAYLOAD,U,22001A,2022-04-24 14:00:01,224,15.08837291,0.0001648,53.2175,41.7638,55.4473,26.8515,0,999,361,0.00087008,0.00013585,0.0,3414186,0 STARLINK-3321,1 50803U 22001A   22114.58334491  .00013585  00000-0  87008-3 0  9996,2 50803  53.2175  41.7638 0001648  55.4473  26.8515 15.08837291  3618,2022-001A,50803,6917.889,95.438,540.894,538.614,1
GENERATED VIA SPACETRACK.ORG API,18 SPCS,50803,STARLINK-3321,PAYLOAD,U,22001A,2022-04-24 20:00:01,224,15.08850643,0.000172,53.2177,40.6415,59.4038,301.5834,0,999,1808,-0.0013279,-0.00021366,0.0,3414309,0 STARLINK-3321,1 50803U 22001A   22114.83334491 -.00021366  00000-0 -13279-2 0  9990,2 50803  53.2177  40.6415 0001720  59.4038 301.5834 15.08850643 18083,2022-001A,50803,6917.848,95.437,540.903,538.523,1
GENERATED VIA SPACETRACK.ORG API,18 SPCS,50803,STARLINK-3321,PAYLOAD,U,22001A,2022-04-25 14:00:01,224,15.08805131,0.0001647,53.2172,37.2746,56.8464,60.2251,0,999,362,0.0024864,0.00039467,0.0,3415659,0 STARLINK-3321,1 50803U 22001A   22115.58334491  .00039467  00000-0  24864-2 0  9994,2 50803  53.2172  37.2746 0001647  56.8464  60.2251 15.08805131  3627,2022-001A,50803,6917.987,95.44,540.991,538.713,1
GENERATED VIA SPACETRACK.ORG API,18 SPCS,50803,STARLINK-3321,PAYLOAD,U,22001A,2022-04-25 20:00:01,224,15.08841584,0.0001695,53.2174,36.1526,59.53,336.2144,0,999,1823,0.00067867,0.0001053,0.0,3415802,0 STARLINK-3321,1 50803U 22001A   22115.83334491  .00010530  00000-0  67867-3 0  9993,2 50803  53.2174  36.1526 0001695  59.5300 336.2144 15.08841584 18237,2022-001A,50803,6917.876,95.437,540.913,538.568,1
GENERATED VIA SPACETRACK.ORG API,18 SPCS,50803,STARLINK-3321,PAYLOAD,U,22001A,2022-04-25 22:00:00,999936,15.0885295,0.0001727,53.2173,35.7789,57.6569,70.9846,0,999,361,-0.00083728,-0.00013594,0.0,3416090,0 STARLINK-3321,1 50803U 22001A   22115.91667824 -.00013594  00000-0 -83728-3 0  9990,2 50803  53.2173  35.7789 0001727  57.6569  70.9846 15.08852950  3610,2022-001A,50803,6917.841,95.437,540.901,538.511,1
GENERATED VIA SPACETRACK.ORG API,18 SPCS,50803,STARLINK-3321,PAYLOAD,U,22001A,2022-04-26 14:00:01,999872,15.08831962,0.0001618,53.2172,32.7855,56.0608,95.8599,0,999,361,0.0014169,0.00022329,0.0,3417035,0 STARLINK-3321,1 50803U 22001A   22116.58335648  .00022329  00000-0  14169-2 0  9996,2 50803  53.2172  32.7855 0001618  56.0608  95.8599 15.08831962  3617,2022-001A,50803,6917.905,95.438,540.889,538.651,1
GENERATED VIA SPACETRACK.ORG API,18 SPCS,50803,STARLINK-3321,PAYLOAD,U,22001A,2022-04-26 22:00:00,999936,15.0884851,0.0001758,53.2175,31.2901,57.7674,105.6871,0,999,1839,-0.001128,-0.000182,0.0,3417162,0 STARLINK-3321,1 50803U 22001A   22116.91667824 -.00018200  00000-0 -11280-2 0  9993,2 50803  53.2175  31.2901 0001758  57.7674 105.6871 15.08848510 18393,2022-001A,50803,6917.854,95.437,540.936,538.503,1
GENERATED VIA SPACETRACK.ORG API,18 SPCS,50803,STARLINK-3321,PAYLOAD,U,22001A,2022-04-26 22:00:00,999936,15.0884851,0.0001758,53.2175,31.2901,57.7674,105.6871,0,999,358,-0.001128,-0.000182,0.0,3417474,0 STARLINK-3321,1 50803U 22001A   22116.91667824 -.00018200  00000-0 -11280-2 0  9993,2 50803  53.2175  31.2901 0001758  57.7674 105.6871 15.08848510  3588,2022-001A,50803,6917.854,95.437,540.936,538.503,1
GENERATED VIA SPACETRACK.ORG API,18 SPCS,50803,STARLINK-3321,PAYLOAD,U,22001A,2022-04-27 14:00:01,999872,15.08803919,0.0001669,53.2176,28.2964,55.9107,130.7819,0,999,359,0.0032584,0.000519,0.0,3418497,0 STARLINK-3321,1 50803U 22001A   22117.58335648  .00051900  00000-0  32584-2 0  9995,2 50803  53.2176  28.2964 0001669  55.9107 130.7819 15.08803919  3592,2022-001A,50803,6917.991,95.44,541.01,538.701,1
GENERATED VIA SPACETRACK.ORG API,18 SPCS,50803,STARLINK-3321,PAYLOAD,U,22001A,2022-04-27 20:00:01,224,15.08851613,0.000174,53.218,27.1746,57.3216,47.9816,0,999,1853,-0.00028033,-4.748e-05,0.0,3418612,0 STARLINK-3321,1 50803U 22001A   22117.83334491 -.00004748  00000-0 -28033-3 0  9993,2 50803  53.2180  27.1746 0001740  57.3216  47.9816 15.08851613 18530,2022-001A,50803,6917.845,95.437,540.914,538.506,1
GENERATED VIA SPACETRACK.ORG API,18 SPCS,50803,STARLINK-3321,PAYLOAD,U,22001A,2022-04-28 14:00:01,224,15.08849509,0.0001566,53.2182,23.8074,53.4443,167.9928,0,999,359,0.00065749,0.00010194,0.0,3420061,0 STARLINK-3321,1 50803U 22001A   22118.58334491  .00010194  00000-0  65749-3 0  9991,2 50803  53.2182  23.8074 0001566  53.4443 167.9928 15.08849509  3592,2022-001A,50803,6917.851,95.437,540.8,538.633,1
